{"type": "FeatureCollection", "features": [{"type": "Feature", "geometry": {"type": "Point", "coordinates": [2.55, 49.012798]}, "properties": {"IATA": "CDG", "Name": "Charles de Gaulle International Airport", "City": "Paris", "Country": "France", "dep_count": 0.0, "arr_count": 0.0, "arr_conn_count": 1.0, "dep_dest_hist": "LHR,1", "arr_dest_hist": "HND,1", "dep_first": "2026-01-12", "arr_first": "2026-01-12", "dep_last": "2026-01-12", "arr_last": "2026-01-12", "dep_airline_hist": "British Airways,1", "arr_airline_hist": "Japan,1", "dep_intdom_hist": "International,1", "arr_intdom_hist": "International,1", "dep_year_hist": "", "arr_year_hist": "", "arr_conn_year_hist": "2026,1", "full_year_hist": "2026,1", "total": 1.0, "first": "2026-01-12", "last": "2026-01-12"}}, {"type": "Feature", "geometry": {"type": "Point", "coordinates": [-7.96591, 37.0144]}, "properties": {"IATA": "FAO", "Name": "Faro Airport", "City": "Faro", "Country": "Portugal", "dep_count": 1.0, "arr_count": 1.0, "arr_conn_count": 0.0, "dep_dest_hist": "LGW,1", "arr_dest_hist": "STN,1", "dep_first": "2026-03-10", "arr_first": "2026-03-05", "dep_last": "2026-03-10", "arr_last": "2026-03-05", "dep_airline_hist": "Easyjet,1", "arr_airline_hist": "Ryanair,1", "dep_intdom_hist": "International,1", "arr_intdom_hist": "International,1", "dep_year_hist": "2026,1", "arr_year_hist": "2026,1", "arr_conn_year_hist": "", "full_year_hist": "2026,2", "total": 2.0, "first": "2026-03-05", "last": "2026-03-05"}}, {"type": "Feature", "geometry": {"type": "Point", "coordinates": [113.915001, 22.308901]}, "properties": {"IATA": "HKG", "Name": "Hong Kong International Airport", "City": "Hong Kong", "Country": "Hong Kong", "dep_count": 1.0, "arr_count": 0.0, "arr_conn_count": 1.0, "dep_dest_hist": "OKA,1;PVG,1", "arr_dest_hist": "OKA,1", "dep_first": "2026-01-06", "arr_first": "2026-01-10", "dep_last": "2026-01-10", "arr_last": "2026-01-10", "dep_airline_hist": "HK Express,1;Hong Kong,1", "arr_airline_hist": "Hong Kong,1", "dep_intdom_hist": "International,2", "arr_intdom_hist": "International,1", "dep_year_hist": "2026,1", "arr_year_hist": "", "arr_conn_year_hist": "2026,1", "full_year_hist": "2026,2", "total": 2.0, "first": "2026-01-06", "last": "2026-01-10"}}, {"type": "Feature", "geometry": {"type": "Point", "coordinates": [139.779999, 35.552299]}, "properties": {"IATA": "HND", "Name": "Tokyo Haneda International Airport", "City": "Tokyo", "Country": "Japan", "dep_count": 0.0, "arr_count": 0.0, "arr_conn_count": 1.0, "dep_dest_hist": "CDG,1", "arr_dest_hist": "PVG,1", "dep_first": "2026-01-12", "arr_first": "2026-01-11", "dep_last": "2026-01-12", "arr_last": "2026-01-11", "dep_airline_hist": "Japan,1", "arr_airline_hist": "Japan,1", "dep_intdom_hist": "International,1", "arr_intdom_hist": "International,1", "dep_year_hist": "", "arr_year_hist": "", "arr_conn_year_hist": "2026,1", "full_year_hist": "2026,1", "total": 1.0, "first": "2026-01-11", "last": "2026-01-11"}}, {"type": "Feature", "geometry": {"type": "Point", "coordinates": [-0.190278, 51.148102]}, "properties": {"IATA": "LGW", "Name": "London Gatwick Airport", "City": "London", "Country": "United Kingdom", "dep_count": 0.0, "arr_count": 1.0, "arr_conn_count": 0.0, "dep_dest_hist": "", "arr_dest_hist": "FAO,1", "dep_first": "", "arr_first": "2026-03-10", "dep_last": "", "arr_last": "2026-03-10", "dep_airline_hist": "", "arr_airline_hist": "Easyjet,1", "dep_intdom_hist": "", "arr_intdom_hist": "International,1", "dep_year_hist": "", "arr_year_hist": "2026,1", "arr_conn_year_hist": "", "full_year_hist": "2026,1", "total": 1.0, "first": "", "last": ""}}, {"type": "Feature", "geometry": {"type": "Point", "coordinates": [-0.461941, 51.4706]}, "properties": {"IATA": "LHR", "Name": "London Heathrow Airport", "City": "London", "Country": "United Kingdom", "dep_count": 0.0, "arr_count": 1.0, "arr_conn_count": 0.0, "dep_dest_hist": "", "arr_dest_hist": "CDG,1", "dep_first": "", "arr_first": "2026-01-12", "dep_last": "", "arr_last": "2026-01-12", "dep_airline_hist": "", "arr_airline_hist": "British Airways,1", "dep_intdom_hist": "", "arr_intdom_hist": "International,1", "dep_year_hist": "", "arr_year_hist": "2026,1", "arr_conn_year_hist": "", "full_year_hist": "2026,1", "total": 1.0, "first": "", "last": ""}}, {"type": "Feature", "geometry": {"type": "Point", "coordinates": [144.843002, -37.673302]}, "properties": {"IATA": "MEL", "Name": "Melbourne International Airport", "City": "Melbourne", "Country": "Australia", "dep_count": 1.0, "arr_count": 1.0, "arr_conn_count": 0.0, "dep_dest_hist": "PEK,1", "arr_dest_hist": "SYD,1", "dep_first": "2026-01-04", "arr_first": "2026-01-01", "dep_last": "2026-01-04", "arr_last": "2026-01-01", "dep_airline_hist": "Air China,1", "arr_airline_hist": "Virgin Australia,1", "dep_intdom_hist": "International,1", "arr_intdom_hist": "Domestic,1", "dep_year_hist": "2026,1", "arr_year_hist": "2026,1", "arr_conn_year_hist": "", "full_year_hist": "2026,2", "total": 2.0, "first": "2026-01-01", "last": "2026-01-01"}}, {"type": "Feature", "geometry": {"type": "Point", "coordinates": [127.646004, 26.195801]}, "properties": {"IATA": "OKA", "Name": "Naha Airport", "City": "Okinawa", "Country": "Japan", "dep_count": 1.0, "arr_count": 1.0, "arr_conn_count": 0.0, "dep_dest_hist": "HKG,1", "arr_dest_hist": "HKG,1", "dep_first": "2026-01-10", "arr_first": "2026-01-06", "dep_last": "2026-01-10", "arr_last": "2026-01-06", "dep_airline_hist": "Hong Kong,1", "arr_airline_hist": "HK Express,1", "dep_intdom_hist": "International,1", "arr_intdom_hist": "International,1", "dep_year_hist": "2026,1", "arr_year_hist": "2026,1", "arr_conn_year_hist": "", "full_year_hist": "2026,2", "total": 2.0, "first": "2026-01-06", "last": "2026-01-06"}}, {"type": "Feature", "geometry": {"type": "Point", "coordinates": [116.584999, 40.080101]}, "properties": {"IATA": "PEK", "Name": "Beijing Capital International Airport", "City": "Beijing", "Country": "China", "dep_count": 0.0, "arr_count": 1.0, "arr_conn_count": 0.0, "dep_dest_hist": "", "arr_dest_hist": "MEL,1", "dep_first": "", "arr_first": "2026-01-04", "dep_last": "", "arr_last": "2026-01-04", "dep_airline_hist": "", "arr_airline_hist": "Air China,1", "dep_intdom_hist": "", "arr_intdom_hist": "International,1", "dep_year_hist": "", "arr_year_hist": "2026,1", "arr_conn_year_hist": "", "full_year_hist": "2026,1", "total": 1.0, "first": "", "last": ""}}, {"type": "Feature", "geometry": {"type": "Point", "coordinates": [121.805, 31.1434]}, "properties": {"IATA": "PVG", "Name": "Shanghai Pudong International Airport", "City": "Shanghai", "Country": "China", "dep_count": 1.0, "arr_count": 1.0, "arr_conn_count": 0.0, "dep_dest_hist": "HND,1", "arr_dest_hist": "HKG,1", "dep_first": "2026-01-11", "arr_first": "2026-01-10", "dep_last": "2026-01-11", "arr_last": "2026-01-10", "dep_airline_hist": "Japan,1", "arr_airline_hist": "Hong Kong,1", "dep_intdom_hist": "International,1", "arr_intdom_hist": "International,1", "dep_year_hist": "2026,1", "arr_year_hist": "2026,1", "arr_conn_year_hist": "", "full_year_hist": "2026,2", "total": 2.0, "first": "2026-01-10", "last": "2026-01-10"}}, {"type": "Feature", "geometry": {"type": "Point", "coordinates": [0.235, 51.884998]}, "properties": {"IATA": "STN", "Name": "London Stansted Airport", "City": "London", "Country": "United Kingdom", "dep_count": 2.0, "arr_count": 1.0, "arr_conn_count": 0.0, "dep_dest_hist": "FAO,1;TRS,1", "arr_dest_hist": "TRS,1", "dep_first": "2026-03-05", "arr_first": "2026-04-07", "dep_last": "2026-04-02", "arr_last": "2026-04-07", "dep_airline_hist": "Ryanair,2", "arr_airline_hist": "Ryanair,1", "dep_intdom_hist": "International,2", "arr_intdom_hist": "International,1", "dep_year_hist": "2026,2", "arr_year_hist": "2026,1", "arr_conn_year_hist": "", "full_year_hist": "2026,3", "total": 3.0, "first": "2026-03-05", "last": "2026-04-02"}}, {"type": "Feature", "geometry": {"type": "Point", "coordinates": [151.177002, -33.946098]}, "properties": {"IATA": "SYD", "Name": "Sydney Kingsford Smith International Airport", "City": "Sydney", "Country": "Australia", "dep_count": 1.0, "arr_count": 0.0, "arr_conn_count": "", "dep_dest_hist": "MEL,1", "arr_dest_hist": "", "dep_first": "2026-01-01", "arr_first": "", "dep_last": "2026-01-01", "arr_last": "", "dep_airline_hist": "Virgin Australia,1", "arr_airline_hist": "", "dep_intdom_hist": "Domestic,1", "arr_intdom_hist": "", "dep_year_hist": "2026,1", "arr_year_hist": "", "arr_conn_year_hist": "", "full_year_hist": "2026,1", "total": 1.0, "first": "2026-01-01", "last": "2026-01-01"}}, {"type": "Feature", "geometry": {"type": "Point", "coordinates": [13.4722, 45.827499]}, "properties": {"IATA": "TRS", "Name": "Trieste\u2013Friuli Venezia Giulia Airport", "City": "Ronchi De Legionari", "Country": "Italy", "dep_count": 1.0, "arr_count": 1.0, "arr_conn_count": 0.0, "dep_dest_hist": "STN,1", "arr_dest_hist": "STN,1", "dep_first": "2026-04-07", "arr_first": "2026-04-02", "dep_last": "2026-04-07", "arr_last": "2026-04-02", "dep_airline_hist": "Ryanair,1", "arr_airline_hist": "Ryanair,1", "dep_intdom_hist": "International,1", "arr_intdom_hist": "International,1", "dep_year_hist": "2026,1", "arr_year_hist": "2026,1", "arr_conn_year_hist": "", "full_year_hist": "2026,2", "total": 2.0, "first": "2026-04-02", "last": "2026-04-02"}}]}